[{"OBJECT_NAME":"STARLINK-36034","OBJECT_ID":"2025-270X","EPOCH":"2026-03-09T23:10:18.322176","MEAN_MOTION":15.27584857,"ECCENTRICITY":0.00010445,"INCLINATION":43.0015,"RA_OF_ASC_NODE":54.9914,"ARG_OF_PERICENTER":215.0502,"MEAN_ANOMALY":145.0281,"EPHEMERIS_TYPE":0,"CLASSIFICATION_TYPE":"U","NORAD_CAT_ID":66609,"ELEMENT_SET_NO":999,"REV_AT_EPOCH":1758,"BSTAR":0.0010090645,"MEAN_MOTION_DOT":0.00027613,"MEAN_MOTION_DDOT":0},{"OBJECT_NAME":"OBJECT BC","OBJECT_ID":"2025-313BC","EPOCH":"2026-03-09T04:33:08.504064","MEAN_MOTION":15.29126358,"ECCENTRICITY":0.00084789,"INCLINATION":97.3985,"RA_OF_ASC_NODE":144.811,"ARG_OF_PERICENTER":328.9209,"MEAN_ANOMALY":31.1528,"EPHEMERIS_TYPE":0,"CLASSIFICATION_TYPE":"U","NORAD_CAT_ID":67298,"ELEMENT_SET_NO":999,"REV_AT_EPOCH":789,"BSTAR":0.0026410397,"MEAN_MOTION_DOT":0.00075331,"MEAN_MOTION_DDOT":0}]
